[{"OBJECT_NAME":"STARLINK-30285","OBJECT_ID":"2023-141A","EPOCH":"2026-03-09T20:37:38.893152","MEAN_MOTION":15.30171146,"ECCENTRICITY":0.0001086,"INCLINATION":53.1603,"RA_OF_ASC_NODE":283.3513,"ARG_OF_PERICENTER":75.3285,"MEAN_ANOMALY":284.7836,"EPHEMERIS_TYPE":0,"CLASSIFICATION_TYPE":"U","NORAD_CAT_ID":57840,"ELEMENT_SET_NO":999,"REV_AT_EPOCH":14035,"BSTAR":-4.8463922e-5,"MEAN_MOTION_DOT":-1.793e-5,"MEAN_MOTION_DDOT":0},{"OBJECT_NAME":"OBJECT D","OBJECT_ID":"2024-174D","EPOCH":"2026-03-10T00:15:10.483200","MEAN_MOTION":15.28039787,"ECCENTRICITY":0.00110644,"INCLINATION":97.4441,"RA_OF_ASC_NODE":80.4677,"ARG_OF_PERICENTER":212.9968,"MEAN_ANOMALY":147.0582,"EPHEMERIS_TYPE":0,"CLASSIFICATION_TYPE":"U","NORAD_CAT_ID":61241,"ELEMENT_SET_NO":999,"REV_AT_EPOCH":8076,"BSTAR":0.00036340099,"MEAN_MOTION_DOT":9.884e-5,"MEAN_MOTION_DDOT":0}]
